NORAD_CAT_ID,OBJECT_NAME,OBJECT_TYPE,EPOCH,MEAN_MOTION,ECCENTRICITY,INCLINATION,RA_OF_ASC_NODE,ARG_OF_PERICENTER,MEAN_ANOMALY,BSTAR,MEAN_MOTION_DOT,MEAN_MOTION_DDOT,TLE_LINE0,TLE_LINE1,TLE_LINE2,SEMIMAJOR_AXIS,PERIOD,APOGEE,PERIGEE,DECAYED
51873.0,STARLINK-3582,PAYLOAD,2022-07-14 22:00:00,15.08816183,0.0001703,53.2154,236.6432,47.6825,263.0369,0.0017371,0.00027448,0.0,0 STARLINK-3582,1 51873U 22022X   22195.91667824  .00027448  00000-0  17371-2 0  9990,2 51873  53.2154 236.6432 0001703  47.6825 263.0369 15.08816183  1309,6917.953,95.439,540.996,538.64,0.0
51873.0,STARLINK-3582,PAYLOAD,2022-07-15 06:00:00,15.08852628,0.0001773,53.2155,235.1473,48.2401,274.0541,-0.0014899,-0.0002393,0.0,0 STARLINK-3582,1 51873U 22022X   22196.25001157 -.00023930  00000-0 -14899-2 0  9995,2 51873  53.2155 235.1473 0001773  48.2401 274.0541 15.08852628 21808,6917.842,95.437,540.933,538.48,0.0
51873.0,STARLINK-3582,PAYLOAD,2022-07-15 14:00:01,15.08824729,0.0001902,53.2152,233.652,43.0562,290.8416,0.0024791,0.00039371,0.0,0 STARLINK-3582,1 51873U 22022X   22196.58334491  .00039371  00000-0  24791-2 0  9997,2 51873  53.2152 233.6520 0001902  43.0562 290.8416 15.08824729  1307,6917.927,95.439,541.1080000000002,538.476,0.0
51873.0,STARLINK-3582,PAYLOAD,2022-07-15 22:00:00,15.08826133,0.0001719,53.2155,232.1538,48.6662,296.8337,0.0022332,0.00035419,0.0,0 STARLINK-3582,1 51873U 22022X   22196.91667824  .00035419  00000-0  22332-2 0  9991,2 51873  53.2155 232.1538 0001719  48.6662 296.8337 15.08826133 21908,6917.9230000000025,95.438,540.977,538.599,0.0
51873.0,STARLINK-3582,PAYLOAD,2022-07-16 14:00:01,15.08841213,0.0001907,53.2153,229.1624,43.5345,325.173,0.0019983,0.0003166,0.0,0 STARLINK-3582,1 51873U 22022X   22197.58334491  .00031660  00000-0  19983-2 0  9998,2 51873  53.2153 229.1624 0001907  43.5345 325.1730 15.08841213 22011,6917.877,95.437,541.061,538.422,0.0
51873.0,STARLINK-3582,PAYLOAD,2022-07-16 22:00:00,15.08848149,0.0001738,53.2155,227.6642,50.3953,329.932,0.00052473,8.075e-05,0.0,0 STARLINK-3582,1 51873U 22022X   22197.91667824  .00008075  00000-0  52473-3 0  9990,2 51873  53.2155 227.6642 0001738  50.3953 329.9320 15.08848149  1300,6917.855,95.437,540.923,538.518,0.0
51873.0,STARLINK-3582,PAYLOAD,2022-07-17 06:00:00,15.08857086,0.0001887,53.2156,226.1688,51.2254,340.7109,-0.0020425,-0.00032663,0.0,0 STARLINK-3582,1 51873U 22022X   22198.25001157 -.00032663  00000-0 -20425-2 0  9992,2 51873  53.2156 226.1688 0001887  51.2254 340.7109 15.08857086 22112,6917.828,95.436,540.999,538.388,0.0
51873.0,STARLINK-3582,PAYLOAD,2022-07-17 14:00:01,15.08829479,0.0001982,53.2152,224.673,46.8385,356.6934,0.0015118,0.00023847,0.0,0 STARLINK-3582,1 51873U 22022X   22198.58334491  .00023847  00000-0  15118-2 0  9993,2 51873  53.2152 224.6730 0001982  46.8385 356.6934 15.08829479  1305,6917.913000000001,95.438,541.149,538.406,0.0
51873.0,STARLINK-3582,PAYLOAD,2022-07-17 22:00:00,15.08816144,0.0001802,53.2153,223.1749,53.5572,1.5714,0.0026853,0.0004268,0.0,0 STARLINK-3582,1 51873U 22022X   22198.91667824  .00042680  00000-0  26853-2 0  9993,2 51873  53.2153 223.1749 0001802  53.5572   1.5714 15.08816144 22214,6917.953,95.439,541.065,538.572,0.0
51873.0,STARLINK-3582,PAYLOAD,2022-07-18 14:00:01,15.08838005,0.0002007,53.215,220.1837,48.1434,30.1694,0.0009549,0.00014941,0.0,0 STARLINK-3582,1 51873U 22022X   22199.58334491  .00014941  00000-0  95490-3 0  9991,2 51873  53.2150 220.1837 0002007  48.1434  30.1694 15.08838005  1303,6917.886,95.438,541.14,538.363,0.0
51873.0,STARLINK-3582,PAYLOAD,2022-07-18 16:00:00,15.08857523,0.0001975,53.215,219.8091,49.9944,121.2128,-0.0016287,-0.00026128,0.0,0 STARLINK-3582,1 51873U 22022X   22199.66667824 -.00026128  00000-0 -16287-2 0  9997,2 51873  53.2150 219.8091 0001975  49.9944 121.2128 15.08857523 22323,6917.8269999999975,95.436,541.058,538.326,0.0
51873.0,STARLINK-3582,PAYLOAD,2022-07-18 22:00:00,15.08828321,0.0001825,53.2151,218.6856,54.0653,35.8537,0.0017074,0.00026981,0.0,0 STARLINK-3582,1 51873U 22022X   22199.91667824  .00026981  00000-0  17074-2 0  9995,2 51873  53.2151 218.6856 0001825  54.0653  35.8537 15.08828321  1301,6917.916,95.438,541.044,538.519,0.0
51873.0,STARLINK-3582,PAYLOAD,2022-07-19 14:00:01,15.08821617,0.0001973,53.215,215.6944,46.8512,66.2432,0.00053635,8.254e-05,0.0,0 STARLINK-3582,1 51873U 22022X   22200.58334491  .00008254  00000-0  53635-3 0  9999,2 51873  53.2150 215.6944 0001973  46.8512  66.2432 15.08821617 22465,6917.937,95.439,541.1659999999998,538.437,0.0
51873.0,STARLINK-3582,PAYLOAD,2022-07-19 22:00:00,15.08808896,0.0001861,53.2163,214.2012,51.7239,72.9531,0.0018863,0.00029835,0.0,0 STARLINK-3582,1 51873U 22022X   22200.91667824  .00029835  00000-0  18863-2 0  9996,2 51873  53.2163 214.2012 0001861  51.7239  72.9531 15.08808896  1305,6917.975,95.44,541.128,538.553,0.0
51873.0,STARLINK-3582,PAYLOAD,2022-07-20 14:00:01,15.08837556,0.0002059,53.2151,211.2052,47.984,99.8572,8.041899999999999e-05,9.92e-06,0.0,0 STARLINK-3582,1 51873U 22022X   22201.58334491  .00000992  00000-0  80419-4 0  9992,2 51873  53.2151 211.2052 0002059  47.9840  99.8572 15.08837556  1306,6917.888000000001,95.438,541.177,538.328,0.0
51873.0,STARLINK-3582,PAYLOAD,2022-07-20 22:00:01,15.08818997,0.0001931,53.2152,209.7071,53.7187,105.7843,0.0024712,0.00039238,0.0,0 STARLINK-3582,1 51873U 22022X   22201.91668981  .00039238  00000-0  24712-2 0  9990,2 51873  53.2152 209.7071 0001931  53.7187 105.7843 15.08818997 22665,6917.945,95.439,541.145,538.474,0.0
51873.0,STARLINK-3582,PAYLOAD,2022-07-21 14:00:01,15.08850504,0.0002153,53.2153,206.7159,49.033,133.6499,-0.00056062,-9.202e-05,0.0,0 STARLINK-3582,1 51873U 22022X   22202.58335648 -.00009202  00000-0 -56062-3 0  9999,2 51873  53.2153 206.7159 0002153  49.0330 133.6499 15.08850504  1300,6917.848000000001,95.437,541.203,538.224,0.0
51873.0,STARLINK-3582,PAYLOAD,2022-07-21 22:00:00,15.08831671,0.0002013,53.2155,205.2179,54.3122,139.9169,0.0019497,0.00030871,0.0,0 STARLINK-3582,1 51873U 22022X   22202.91667824  .00030871  00000-0  19497-2 0  9994,2 51873  53.2155 205.2179 0002013  54.3122 139.9169 15.08831671  1308,6917.906,95.438,541.163,538.378,0.0
51873.0,STARLINK-3582,PAYLOAD,2022-07-22 06:00:00,15.08852397,0.0002136,53.2156,203.7231,50.7267,155.1057,-0.0030116,-0.00047917,0.0,0 STARLINK-3582,1 51873U 22022X   22203.25001157 -.00047917  00000-0 -30116-2 0  9995,2 51873  53.2156 203.7231 0002136  50.7267 155.1057 15.08852397  1301,6917.842,95.437,541.185,538.23,0.0
51873.0,STARLINK-3582,PAYLOAD,2022-07-22 22:00:00,15.088157199999998,0.0002004,53.2157,200.7288,54.1927,174.8162,0.0023383,0.00037098,0.0,0 STARLINK-3582,1 51873U 22022X   22203.91667824  .00037098  00000-0  23383-2 0  9992,2 51873  53.2157 200.7288 0002004  54.1927 174.8162 15.08815720  1300,6917.955,95.439,541.206,538.433,0.0
51873.0,STARLINK-3582,PAYLOAD,2022-07-23 14:00:01,15.08851864,0.0002151999999999,53.2156,197.7374,49.9948,202.2431,-0.0017416,-0.00027909,0.0,0 STARLINK-3582,1 51873U 22022X   22204.58335648 -.00027909  00000-0 -17416-2 0  9994,2 51873  53.2156 197.7374 0002152  49.9948 202.2431 15.08851864  1303,6917.844,95.437,541.198,538.22,0.0
51873.0,STARLINK-3582,PAYLOAD,2022-07-23 16:00:00,15.08852644,0.0002112999999999,53.2157,197.3629,51.5113,293.5632,-0.0021598,-0.0003451,0.0,0 STARLINK-3582,1 51873U 22022X   22204.66667824 -.00034510  00000-0 -21598-2 0  9999,2 51873  53.2157 197.3629 0002113  51.5113 293.5632 15.08852644 23074,6917.842,95.437,541.168,538.245,0.0
51873.0,STARLINK-3582,PAYLOAD,2022-07-23 22:00:00,15.08827307,0.0002031,53.2157,196.2397,56.0535,207.7271,0.0023296,0.0003697,0.0,0 STARLINK-3582,1 51873U 22022X   22204.91667824  .00036970  00000-0  23296-2 0  9994,2 51873  53.2157 196.2397 0002031  56.0535 207.7271 15.08827307  1307,6917.919,95.438,541.189,538.379,0.0
51873.0,STARLINK-3582,PAYLOAD,2022-07-24 06:00:00,15.08848208,0.0002191999999999,53.2156,194.745,52.2685,223.109,-0.00066023,-0.00010783,0.0,0 STARLINK-3582,1 51873U 22022X   22205.25001157 -.00010783  00000-0 -66023-3 0  9995,2 51873  53.2156 194.7450 0002192  52.2685 223.1090 15.08848208 23163,6917.855,95.437,541.237,538.2040000000002,0.0
51873.0,STARLINK-3582,PAYLOAD,2022-07-24 14:00:01,15.08864332,0.0002134999999999,53.2153,193.2482,51.5483,235.4227,-0.0022073,-0.0003526999999999,0.0,0 STARLINK-3582,1 51873U 22022X   22205.58334491 -.00035270  00000-0 -22073-2 0  9995,2 51873  53.2153 193.2482 0002135  51.5483 235.4227 15.08864332  1300,6917.806,95.436,541.148,538.194,0.0
51873.0,STARLINK-3582,PAYLOAD,2022-07-24 22:00:00,15.08839469,0.000198,53.2154,191.7506,57.0521,241.5329,-0.00047541,-7.846e-05,0.0,0 STARLINK-3582,1 51873U 22022X   22205.91667824 -.00007846  00000-0 -47541-3 0  9997,2 51873  53.2154 191.7506 0001980  57.0521 241.5329 15.08839469  1306,6917.882,95.438,541.117,538.377,0.0
51873.0,STARLINK-3582,PAYLOAD,2022-07-25 14:00:01,15.08842581,0.0002070999999999,53.2149,188.759,51.9014,269.8447,-0.0023459,-0.00037433,0.0,0 STARLINK-3582,1 51873U 22022X   22206.58334491 -.00037433  00000-0 -23459-2 0  9998,2 51873  53.2149 188.7590 0002071  51.9014 269.8447 15.08842581  1304,6917.871999999999,95.437,541.17,538.305,0.0
51873.0,STARLINK-3582,PAYLOAD,2022-07-25 22:00:00,15.08816552,0.0001988,53.215,187.2616,58.4952,274.8365,0.0019045,0.00030133,0.0,0 STARLINK-3582,1 51873U 22022X   22206.91667824  .00030133  00000-0  19045-2 0  9998,2 51873  53.2150 187.2616 0001988  58.4952 274.8365 15.08816552  1302,6917.9519999999975,95.439,541.192,538.442,0.0
51873.0,STARLINK-3582,PAYLOAD,2022-07-26 14:00:01,15.08848224,0.0002117,53.2146,184.2699,54.0932,302.3961,-0.0023131,-0.00036922,0.0,0 STARLINK-3582,1 51873U 22022X   22207.58334491 -.00036922  00000-0 -23131-2 0  9998,2 51873  53.2146 184.2699 0002117  54.0932 302.3961 15.08848224  1300,6917.855,95.437,541.185,538.256,0.0
